{
    "links": {
        "self": "http://www.neowsapp.com/rest/v1/neo/3838030?api_key=iIulBulltgU6a56xZRHN4H3l9WmuAYTsLGpBGhQ2"
    },
    "id": "3838030",
    "neo_reference_id": "3838030",
    "name": "(2019 BD3)",
    "designation": "2019 BD3",
    "nasa_jpl_url": "http://ssd.jpl.nasa.gov/sbdb.cgi?sstr=3838030",
    "absolute_magnitude_h": 25.6,
    "estimated_diameter": {
        "kilometers": {
            "estimated_diameter_min": 0.0201629919,
            "estimated_diameter_max": 0.0450858206
        },
        "meters": {
            "estimated_diameter_min": 20.1629919443,
            "estimated_diameter_max": 45.0858206172
        },
        "miles": {
            "estimated_diameter_min": 0.0125286985,
            "estimated_diameter_max": 0.0280150214
        },
        "feet": {
            "estimated_diameter_min": 66.1515504905,
            "estimated_diameter_max": 147.9193637137
        }
    },
    "is_potentially_hazardous_asteroid": false,
    "close_approach_data": [
        {
            "close_approach_date": "1990-01-08",
            "close_approach_date_full": "1990-Jan-08 08:38",
            "epoch_date_close_approach": 631787880000,
            "relative_velocity": {
                "kilometers_per_second": "16.5793168407",
                "kilometers_per_hour": "59685.5406265819",
                "miles_per_hour": "37086.2738410003"
            },
            "miss_distance": {
                "astronomical": "0.2870603405",
                "lunar": "111.6664724545",
                "kilometers": "42943615.500274735",
                "miles": "26683925.321811943"
            },
            "orbiting_body": "Earth"
        },
        {
            "close_approach_date": "2014-08-06",
            "close_approach_date_full": "2014-Aug-06 10:20",
            "epoch_date_close_approach": 1407320400000,
            "relative_velocity": {
                "kilometers_per_second": "13.8723291595",
                "kilometers_per_hour": "49940.3849742022",
                "miles_per_hour": "31031.0130968869"
            },
            "miss_distance": {
                "astronomical": "0.0178682035",
                "lunar": "6.9507311615",
                "kilometers": "2673045.184326545",
                "miles": "1660953.258114521"
            },
            "orbiting_body": "Mars"
        },
        {
            "close_approach_date": "2019-02-01",
            "close_approach_date_full": "2019-Feb-01 17:50",
            "epoch_date_close_approach": 1549043400000,
            "relative_velocity": {
                "kilometers_per_second": "8.4335265417",
                "kilometers_per_hour": "30360.6955501885",
                "miles_per_hour": "18864.9555211713"
            },
            "miss_distance": {
                "astronomical": "0.0323197154",
                "lunar": "12.5723692906",
                "kilometers": "4834960.582846198",
                "miles": "3004305.1946976124"
            },
            "orbiting_body": "Earth"
        }
    ],
    "orbital_data": {
        "orbit_id": "3",
        "orbit_determination_date": "2019-02-03 07:04:36",
        "first_observation_date": "2019-01-26",
        "last_observation_date": "2019-02-03",
        "data_arc_in_days": 8,
        "observations_used": 31,
        "orbit_uncertainty": "7",
        "minimum_orbit_intersection": ".00343302",
        "jupiter_tisserand_invariant": "3.934",
        "epoch_osculation": "2459000.5",
        "eccentricity": ".465256306837178",
        "semi_major_axis": "1.798521760113213",
        "inclination": ".373994637413386",
        "ascending_node_longitude": "43.37691536983552",
        "orbital_period": "880.9920144552357",
        "perihelion_distance": ".9617481682366383",
        "perihelion_argument": "119.8488416582928",
        "aphelion_distance": "2.635295351989787",
        "perihelion_time": "2459421.300414645848",
        "mean_anomaly": "188.0482152086491",
        "mean_motion": ".4086302646257324",
        "equinox": "J2000",
        "orbit_class": {
            "orbit_class_type": "APO",
            "orbit_class_description": "Near-Earth asteroid orbits which cross the Earth’s orbit similar to that of 1862 Apollo",
            "orbit_class_range": "a (semi-major axis) > 1.0 AU; q (perihelion) < 1.017 AU"
        }
    },
    "is_sentry_object": false
}